BEIDOU 3 (C01)          
1 36287U 10001A   21051.58870581 -.00000277  00000-0  00000-0 0  9996
2 36287   1.7024  41.3660 0002666  98.8158   2.8907  1.00270551 40697
BEIDOU 5 (C06)          
1 36828U 10036A   21051.17349699 -.00000118  00000-0  00000-0 0  9995
2 36828  54.1768 180.6832 0107144 234.1447 273.8903  1.00298120 38736
BEIDOU 6 (C04)          
1 37210U 10057A   21051.59263142 -.00000108  00000-0  00000-0 0  9997
2 37210   0.9367  53.1112 0004406 193.7215 277.2932  1.00271437 37800
BEIDOU 7 (C07)          
1 37256U 10068A   21051.31062304 -.00000185  00000-0  00000-0 0  9991
2 37256  51.0601 295.3918 0081953 216.1936 228.6473  1.00294027 37321
BEIDOU 8 (C08)          
1 37384U 11013A   21050.20403280 -.00000163  00000-0  00000-0 0  9999
2 37384  59.6138  59.0917 0054874 207.2043  75.5549  1.00286944 36172
BEIDOU 9 (C09)          
1 37763U 11038A   21051.58594573 -.00000064  00000-0  00000-0 0  9995
2 37763  54.4640 183.1057 0077873 223.8562  48.5111  1.00288958 35162
BEIDOU 10 (C10)         
1 37948U 11073A   21051.08013250 -.00000129  00000-0  00000-0 0  9994
2 37948  51.1626 295.0067 0069265 215.2548 124.7419  1.00279673 33917
BEIDOU 11 (C05)         
1 38091U 12008A   21051.10188311  .00000057  00000-0  00000-0 0  9996
2 38091   2.0073  71.7452 0003683 261.0074 273.0291  1.00277678 32996
BEIDOU 12 (C11)         
1 38250U 12018A   21051.15759272 -.00000084  00000-0  00000-0 0  9990
2 38250  56.7565   9.4845 0023835 251.6337 240.7118  1.86234217 60106
BEIDOU 13 (C12)         
1 38251U 12018B   21051.25758113 -.00000085  00000-0  00000-0 0  9996
2 38251  56.6795   8.8372 0014838 257.2580 346.5667  1.86234068 60102
BEIDOU 15 (C14)         
1 38775U 12050B   21051.58564709 -.00000030  00000-0  00000-0 0  9995
2 38775  55.1552 127.9232 0013932 317.4152 343.7297  1.86232217 57483
BEIDOU 16 (C02)         
1 38953U 12059A   21051.57753961 -.00000173  00000-0  00000-0 0  9999
2 38953   1.6898  84.9006 0009295 266.1232  91.6154  1.00274468 30568
BEIDOU 17 (C31)         
1 40549U 15019A   21051.08179685 -.00000167  00000-0  00000-0 0  9996
2 40549  52.6810 318.3485 0036312 188.6144 127.3130  1.00291589 21594
BEIDOU 18 (C57)         
1 40748U 15037A   21051.38879329 -.00000087  00000-0  00000-0 0  9993
2 40748  55.9450   7.9901 0005197 338.8865 262.9438  1.86233307 37931
BEIDOU 19 (C58)         
1 40749U 15037B   21051.64516315 -.00000086  00000-0  00000-0 0  9995
2 40749  55.9482   7.9689 0007283 311.3844 238.9380  1.86232145 37939
BEIDOU 20 (C18)         
1 40938U 15053A   21051.11806418 -.00000089  00000-0  00000-0 0  9994
2 40938  52.2434 281.4020 0046118 190.2861 176.5571  1.00262981 19887
BEIDOU IGSO-6 (C13)     
1 41434U 16021A   21051.48105029 -.00000117  00000-0  00000-0 0  9994
2 41434  57.3926  57.8711 0040821 215.8566 144.4462  1.00292848 18005
BEIDOU-2 G7 (C03)       
1 41586U 16037A   21051.50625572 -.00000351  00000-0  00000-0 0  9992
2 41586   2.0090  69.8560 0009197 359.1205  14.3870  1.00267571 17316
BEIDOU-3 M1 (C19)       
1 43001U 17069A   21051.42915994 -.00000031  00000-0  00000-0 0  9998
2 43001  55.3109 127.8650 0009787 284.9124  67.6536  1.86231647 22413
BEIDOU-3 M2 (C20)       
1 43002U 17069B   21051.39478766 -.00000031  00000-0  00000-0 0  9996
2 43002  55.3094 127.9028 0008172 306.9426  66.1882  1.86231421 22412
BEIDOU-3 M3 (C27)       
1 43107U 18003A   21051.41492406 -.00000087  00000-0  00000-0 0  9992
2 43107  55.3852   9.1226 0004403  25.0899 167.4142  1.86232436 21170
BEIDOU-3 M4 (C28)       
1 43108U 18003B   21051.45557740 -.00000087  00000-0  00000-0 0  9990
2 43108  55.3802   9.1123 0004115 262.0466   2.8996  1.86232479 21171
BEIDOU-3 M5 (C21)       
1 43207U 18018A   21050.97087400 -.00000031  00000-0  00000-0 0  9992
2 43207  55.2677 128.0115 0006110 325.0508  34.9564  1.86231663 20558
BEIDOU-3 M6 (C22)       
1 43208U 18018B   21051.03758499 -.00000031  00000-0  00000-0 0  9994
2 43208  55.2673 128.0141 0008502 295.2842  64.6750  1.86231827 20559
BEIDOU-3 M7 (C29)       
1 43245U 18029A   21051.52774917 -.00000088  00000-0  00000-0 0  9996
2 43245  55.3213   6.9155 0001696 309.1586 229.1282  1.86232573 19710
BEIDOU-3 M8 (C30)       
1 43246U 18029B   21050.42987508 -.00000091  00000-0  10000-3 0  9995
2 43246  55.3185   6.9845 0005271 335.8506 232.4547  1.86232722 19689
BEIDOU IGSO-7 (C16)     
1 43539U 18057A   21050.70542035 -.00000116  00000-0  00000-0 0  9998
2 43539  55.0560 180.0119 0032075 212.7891 122.6676  1.00249079  9667
BEIDOU-3 M9 (C23)       
1 43581U 18062A   21051.47652834  .00000082  00000-0  00000-0 0  9996
2 43581  54.4514 248.6135 0002356 319.5528  80.2918  1.86231759 17451
BEIDOU-3 M10 (C24)      
1 43582U 18062B   21050.94751429  .00000078  00000-0  00000-0 0  9993
2 43582  54.4497 248.6197 0006487  15.2351 121.1841  1.86232115 17449
BEIDOU-3 M11 (C25)      
1 43602U 18067A   21051.60949194  .00000084  00000-0  00000-0 0  9990
2 43602  54.5258 247.1686 0007468   5.8274 256.8194  1.86231537 16942
BEIDOU-3 M12 (C26)      
1 43603U 18067B   21051.07271590  .00000081  00000-0  00000-0 0  9997
2 43603  54.5211 247.1564 0004680   0.5789 172.6678  1.86231440 16959
BEIDOU-3 M13 (C32)      
1 43622U 18072A   21051.46346019 -.00000031  00000-0  00000+0 0  9991
2 43622  55.2333 127.5685 0006544 279.1897 186.3299  1.86231478 16472
BEIDOU-3 M14 (C33)      
1 43623U 18072B   21051.26394934 -.00000031  00000-0  00000-0 0  9990
2 43623  55.2341 127.5657 0004641 303.4302 118.5610  1.86231445 16477
BEIDOU-3 M15 (C34)      
1 43647U 18078A   21051.60458686 -.00000088  00000-0  10000-3 0  9991
2 43647  55.2152   7.1131 0007660 344.9679 200.6096  1.86232879 15982
BEIDOU-3 M16 (C35)      
1 43648U 18078B   21051.32104622 -.00000089  00000-0  10000-3 0  9990
2 43648  55.2115   7.1313 0005471 350.6930 273.4436  1.86232459 15997
BEIDOU-3 G1 (C59)       
1 43683U 18085A   21051.65971771 -.00000275  00000-0  00000-0 0  9993
2 43683   1.2587 239.9224 0002813  39.4749 248.9450  1.00273205  8583
BEIDOU-3 M17 (C36)      
1 43706U 18093A   21051.36283593  .00000082  00000-0  00000-0 0  9999
2 43706  54.5307 248.4666 0007622 279.9980 268.5787  1.86231765 15348
BEIDOU-3 M18 (C37)      
1 43707U 18093B   21051.20009766  .00000080  00000-0  00000-0 0  9999
2 43707  54.5319 248.4616 0007325 311.0995 219.1134  1.86232008 15340
BEIDOU-3 IGSO-1 (C38)   
1 44204U 19023A   21051.38075784 -.00000181  00000-0  00000-0 0  9991
2 44204  55.8520  58.1901 0017204 204.8974 138.8673  1.00274484  6870
BEIDOU-2 G8             
1 44231U 19027A   21051.58957816 -.00000243  00000-0  00000-0 0  9991
2 44231   0.4442 314.7366 0007183 269.6402 283.0853  1.00276049  6608
BEIDOU-3 IGSO-2 (C39)   
1 44337U 19035A   21051.44998219 -.00000118  00000-0  00000-0 0  9995
2 44337  55.0870 176.0503 0017203 186.8468  57.0067  1.00266621  6212
BEIDOU-3 M23 (C45)      
1 44542U 19061A   21051.32247389  .00000082  00000-0  10000-3 0  9997
2 44542  54.7564 248.5147 0008499 344.6282 221.0788  1.86231373  9609
BEIDOU-3 M24 (C46)      
1 44543U 19061B   21051.58706141  .00000084  00000-0  10000-3 0  9994
2 44543  54.7542 248.4770 0005613 344.6522 309.1369  1.86231767  9610
BEIDOU-3 IGSO-3         
1 44709U 19073A   21050.77833703 -.00000151  00000-0  00000-0 0  9998
2 44709  58.0226 301.3679 0018796 192.4817  42.9284  1.00260694  4967
BEIDOU-3 M21            
1 44793U 19078A   21051.58485106 -.00000088  00000-0  10000-3 0  9999
2 44793  55.0614   7.1931 0007316 350.4493 136.4929  1.86232436  8474
BEIDOU-3 M22            
1 44794U 19078B   21050.19205840 -.00000092  00000-0  10000-3 0  9996
2 44794  55.0393   7.2442 0005477 343.5111 200.3750  1.86232752  8444
BEIDOU-3 M19            
1 44864U 19090A   21051.39306640 -.00000031  00000-0  00000-0 0  9990
2 44864  55.1688 127.8066 0016140 262.7410 200.9845  1.86231754  8053
BEIDOU-3 M20            
1 44865U 19090B   21051.51738527 -.00000031  00000-0  00000-0 0  9998
2 44865  55.1697 127.8330 0014747 277.9656 359.0342  1.86231712  8039
BEIDOU-3 G2             
1 45344U 20017A   21051.48706594 -.00000134  00000-0  00000-0 0  9991
2 45344   2.5871 333.5617 0001748  40.8114  31.6001  1.00272310  3786
BEIDOU-3 G3             
1 45807U 20040A   21051.58277376 -.00000347  00000-0  00000-0 0  9999
2 45807   2.5518 298.3351 0009635  15.9511 156.6066  1.00265434  2606
